start=new Date('2023-02-06T00:00:00.000Z').valueOf();
sats=[{"ARG_OF_PERICENTER":"267.9883","TLE_LINE2":"2 55359  42.9996 340.1621 0005172 267.9883 148.1149 15.84888589  1309","CENTER_NAME":"EARTH","FILE":"3774172","REV_AT_EPOCH":"130","EPHEMERIS_TYPE":"0","DECAY_DATE":null,"OBJECT_ID":"2023-013AE","TIME_SYSTEM":"UTC","ECCENTRICITY":"0.00051720","ELEMENT_SET_NO":"999","RA_OF_ASC_NODE":"340.1621","REF_FRAME":"TEME","OBJECT_TYPE":"PAYLOAD","SEMIMAJOR_AXIS":"6694.775","BSTAR":"-0.00361570000000","MEAN_MOTION_DDOT":"0.0000000000000","MEAN_ANOMALY":"148.1149","PERIAPSIS":"313.178","MEAN_MOTION":"15.84888589","INCLINATION":"42.9996","OBJECT_NAME":"STARLINK-5641","GP_ID":"224560096","COUNTRY_CODE":"US","LAUNCH_DATE":"2023-01-26","SITE":"AFETR","TLE_LINE1":"1 55359U 23013AE  23036.91667824 -.00799423  00000-0 -36157-2 0  9993","MEAN_MOTION_DOT":"-0.00799423","EPOCH":"2023-02-05T22:00:00.999936","APOAPSIS":"320.103","CLASSIFICATION_TYPE":"U","RCS_SIZE":null,"MEAN_ELEMENT_THEORY":"SGP4","PERIOD":"90.858","NORAD_CAT_ID":"55359"},{"OBJECT_NAME":"STARLINK-5664","GP_ID":"224561344","COUNTRY_CODE":"US","PERIAPSIS":"312.789","MEAN_MOTION":"15.85136678","INCLINATION":"42.9996","TLE_LINE1":"1 55360U 23013AF  23036.91667824 -.00792764  00000-0 -35410-2 0  9997","MEAN_MOTION_DOT":"-0.00792764","EPOCH":"2023-02-05T22:00:00.999936","APOAPSIS":"319.095","LAUNCH_DATE":"2023-01-26","SITE":"AFETR","CLASSIFICATION_TYPE":"U","PERIOD":"90.844","NORAD_CAT_ID":"55360","RCS_SIZE":null,"MEAN_ELEMENT_THEORY":"SGP4","ARG_OF_PERICENTER":"268.1373","CENTER_NAME":"EARTH","FILE":"3774172","TLE_LINE2":"2 55360  42.9996 340.1390 0004710 268.1373 157.1873 15.85136678  1308","TIME_SYSTEM":"UTC","ECCENTRICITY":"0.00047100","ELEMENT_SET_NO":"999","REV_AT_EPOCH":"130","EPHEMERIS_TYPE":"0","DECAY_DATE":null,"OBJECT_ID":"2023-013AF","BSTAR":"-0.00354100000000","MEAN_MOTION_DDOT":"0.0000000000000","MEAN_ANOMALY":"157.1873","REF_FRAME":"TEME","RA_OF_ASC_NODE":"340.1390","SEMIMAJOR_AXIS":"6694.077","OBJECT_TYPE":"PAYLOAD"},{"COUNTRY_CODE":"US","GP_ID":"224526858","OBJECT_NAME":"STARLINK-5665","INCLINATION":"42.9994","MEAN_MOTION":"15.84944509","PERIAPSIS":"314.572","APOAPSIS":"318.394","EPOCH":"2023-02-05T22:00:00.999936","MEAN_MOTION_DOT":"-0.00812434","TLE_LINE1":"1 55361U 23013AG  23036.91667824 -.00812434  00000-0 -36755-2 0  9998","SITE":"AFETR","LAUNCH_DATE":"2023-01-26","CLASSIFICATION_TYPE":"U","NORAD_CAT_ID":"55361","PERIOD":"90.855","MEAN_ELEMENT_THEORY":"SGP4","RCS_SIZE":null,"ARG_OF_PERICENTER":"267.2295","FILE":"3773798","CENTER_NAME":"EARTH","TLE_LINE2":"2 55361  42.9994 340.1583 0002855 267.2295 150.5047 15.84944509  2122","ELEMENT_SET_NO":"999","ECCENTRICITY":"0.00028550","TIME_SYSTEM":"UTC","DECAY_DATE":null,"OBJECT_ID":"2023-013AG","EPHEMERIS_TYPE":"0","REV_AT_EPOCH":"212","MEAN_ANOMALY":"150.5047","MEAN_MOTION_DDOT":"0.0000000000000","BSTAR":"-0.00367550000000","SEMIMAJOR_AXIS":"6694.618","OBJECT_TYPE":"PAYLOAD","REF_FRAME":"TEME","RA_OF_ASC_NODE":"340.1583"},{"OBJECT_TYPE":"PAYLOAD","SEMIMAJOR_AXIS":"6694.670","REF_FRAME":"TEME","RA_OF_ASC_NODE":"340.1588","MEAN_ANOMALY":"149.3479","BSTAR":"-0.00363990000000","MEAN_MOTION_DDOT":"0.0000000000000","EPHEMERIS_TYPE":"0","DECAY_DATE":null,"OBJECT_ID":"2023-013AH","REV_AT_EPOCH":"130","ECCENTRICITY":"0.00051970","ELEMENT_SET_NO":"999","TIME_SYSTEM":"UTC","TLE_LINE2":"2 55362  42.9996 340.1588 0005197 268.1747 149.3479 15.84926002  1306","FILE":"3774172","CENTER_NAME":"EARTH","ARG_OF_PERICENTER":"268.1747","MEAN_ELEMENT_THEORY":"SGP4","RCS_SIZE":null,"NORAD_CAT_ID":"55362","PERIOD":"90.856","CLASSIFICATION_TYPE":"U","SITE":"AFETR","LAUNCH_DATE":"2023-01-26","EPOCH":"2023-02-05T22:00:00.999936","APOAPSIS":"320.014","TLE_LINE1":"1 55362U 23013AH  23036.91667824 -.00805679  00000-0 -36399-2 0  9996","MEAN_MOTION_DOT":"-0.00805679","MEAN_MOTION":"15.84926002","PERIAPSIS":"313.056","INCLINATION":"42.9996","COUNTRY_CODE":"US","OBJECT_NAME":"STARLINK-5574","GP_ID":"224561830"},{"SITE":"AFETR","LAUNCH_DATE":"2023-01-26","APOAPSIS":"318.461","EPOCH":"2023-02-05T22:00:00.999936","MEAN_MOTION_DOT":"-0.00801004","TLE_LINE1":"1 55363U 23013AJ  23036.91667824 -.00801004  00000-0 -36187-2 0  9990","INCLINATION":"42.9998","MEAN_MOTION":"15.84945174","PERIAPSIS":"314.501","COUNTRY_CODE":"US","GP_ID":"224560596","OBJECT_NAME":"STARLINK-5648","MEAN_ELEMENT_THEORY":"SGP4","RCS_SIZE":null,"NORAD_CAT_ID":"55363","PERIOD":"90.855","CLASSIFICATION_TYPE":"U","TLE_LINE2":"2 55363  42.9998 340.1570 0002958 281.2291 136.8524 15.84945174  1305","CENTER_NAME":"EARTH","FILE":"3774172","ARG_OF_PERICENTER":"281.2291","SEMIMAJOR_AXIS":"6694.616","OBJECT_TYPE":"PAYLOAD","REF_FRAME":"TEME","RA_OF_ASC_NODE":"340.1570","MEAN_ANOMALY":"136.8524","MEAN_MOTION_DDOT":"0.0000000000000","BSTAR":"-0.00361870000000","OBJECT_ID":"2023-013AJ","DECAY_DATE":null,"EPHEMERIS_TYPE":"0","REV_AT_EPOCH":"130","ELEMENT_SET_NO":"999","ECCENTRICITY":"0.00029580","TIME_SYSTEM":"UTC"},{"CLASSIFICATION_TYPE":"U","NORAD_CAT_ID":"55364","PERIOD":"90.857","MEAN_ELEMENT_THEORY":"SGP4","RCS_SIZE":null,"COUNTRY_CODE":"US","OBJECT_NAME":"STARLINK-5627","GP_ID":"224526856","MEAN_MOTION":"15.84903309","PERIAPSIS":"312.806","INCLINATION":"42.9994","EPOCH":"2023-02-05T22:00:00.999936","APOAPSIS":"320.392","TLE_LINE1":"1 55364U 23013AK  23036.91667824 -.00808002  00000-0 -36541-2 0  9990","MEAN_MOTION_DOT":"-0.00808002","SITE":"AFETR","LAUNCH_DATE":"2023-01-26","ECCENTRICITY":"0.00056660","ELEMENT_SET_NO":"999","TIME_SYSTEM":"UTC","EPHEMERIS_TYPE":"0","DECAY_DATE":null,"OBJECT_ID":"2023-013AK","REV_AT_EPOCH":"212","MEAN_ANOMALY":"148.7685","BSTAR":"-0.00365410000000","MEAN_MOTION_DDOT":"0.0000000000000","SEMIMAJOR_AXIS":"6694.734","OBJECT_TYPE":"PAYLOAD","REF_FRAME":"TEME","RA_OF_ASC_NODE":"340.1613","ARG_OF_PERICENTER":"267.6721","FILE":"3773798","CENTER_NAME":"EARTH","TLE_LINE2":"2 55364  42.9994 340.1613 0005666 267.6721 148.7685 15.84903309  2120"},{"ARG_OF_PERICENTER":"268.3981","CENTER_NAME":"EARTH","FILE":"3773800","TLE_LINE2":"2 55365  42.9996 340.1546 0005443 268.3981 150.6687 15.84964891  2124","ECCENTRICITY":"0.00054430","ELEMENT_SET_NO":"999","TIME_SYSTEM":"UTC","EPHEMERIS_TYPE":"0","DECAY_DATE":null,"OBJECT_ID":"2023-013AL","REV_AT_EPOCH":"212","MEAN_ANOMALY":"150.6687","BSTAR":"-0.00356300000000","MEAN_MOTION_DDOT":"0.0000000000000","SEMIMAJOR_AXIS":"6694.561","OBJECT_TYPE":"PAYLOAD","RA_OF_ASC_NODE":"340.1546","REF_FRAME":"TEME","COUNTRY_CODE":"US","OBJECT_NAME":"STARLINK-5639","GP_ID":"224526883","MEAN_MOTION":"15.84964891","PERIAPSIS":"312.782","INCLINATION":"42.9996","EPOCH":"2023-02-05T22:00:00.999936","APOAPSIS":"320.069","TLE_LINE1":"1 55365U 23013AL  23036.91667824 -.00791569  00000-0 -35630-2 0  9998","MEAN_MOTION_DOT":"-0.00791569","SITE":"AFETR","LAUNCH_DATE":"2023-01-26","CLASSIFICATION_TYPE":"U","NORAD_CAT_ID":"55365","PERIOD":"90.854","MEAN_ELEMENT_THEORY":"SGP4","RCS_SIZE":null},{"INCLINATION":"42.9994","PERIAPSIS":"312.885","MEAN_MOTION":"15.84915986","GP_ID":"224561332","OBJECT_NAME":"STARLINK-5654","COUNTRY_CODE":"US","LAUNCH_DATE":"2023-01-26","SITE":"AFETR","MEAN_MOTION_DOT":"-0.00799419","TLE_LINE1":"1 55366U 23013AM  23036.91667824 -.00799419  00000-0 -36100-2 0  9994","APOAPSIS":"320.241","EPOCH":"2023-02-05T22:00:00.999936","CLASSIFICATION_TYPE":"U","RCS_SIZE":null,"MEAN_ELEMENT_THEORY":"SGP4","PERIOD":"90.857","NORAD_CAT_ID":"55366","ARG_OF_PERICENTER":"268.0401","TLE_LINE2":"2 55366  42.9994 340.1595 0005494 268.0401 149.0449 15.84915986  1305","FILE":"3774172","CENTER_NAME":"EARTH","REV_AT_EPOCH":"130","DECAY_DATE":null,"OBJECT_ID":"2023-013AM","EPHEMERIS_TYPE":"0","TIME_SYSTEM":"UTC","ELEMENT_SET_NO":"999","ECCENTRICITY":"0.00054940","REF_FRAME":"TEME","RA_OF_ASC_NODE":"340.1595","OBJECT_TYPE":"PAYLOAD","SEMIMAJOR_AXIS":"6694.698","MEAN_MOTION_DDOT":"0.0000000000000","BSTAR":"-0.00361000000000","MEAN_ANOMALY":"149.0449"},{"APOAPSIS":"319.507","EPOCH":"2023-02-05T22:00:00.999936","MEAN_MOTION_DOT":"-0.00798292","TLE_LINE1":"1 55367U 23013AN  23036.91667824 -.00798292  00000-0 -35957-2 0  9992","SITE":"AFETR","LAUNCH_DATE":"2023-01-26","COUNTRY_CODE":"US","GP_ID":"224560097","OBJECT_NAME":"STARLINK-5635","INCLINATION":"43.0000","PERIAPSIS":"313.268","MEAN_MOTION":"15.84978335","NORAD_CAT_ID":"55367","PERIOD":"90.853","MEAN_ELEMENT_THEORY":"SGP4","RCS_SIZE":null,"CLASSIFICATION_TYPE":"U","CENTER_NAME":"EARTH","FILE":"3774172","TLE_LINE2":"2 55367  43.0000 340.1544 0004660 268.7351 150.6682 15.84978335  1309","ARG_OF_PERICENTER":"268.7351","MEAN_ANOMALY":"150.6682","MEAN_MOTION_DDOT":"0.0000000000000","BSTAR":"-0.00359570000000","SEMIMAJOR_AXIS":"6694.523","OBJECT_TYPE":"PAYLOAD","REF_FRAME":"TEME","RA_OF_ASC_NODE":"340.1544","ELEMENT_SET_NO":"999","ECCENTRICITY":"0.00046600","TIME_SYSTEM":"UTC","OBJECT_ID":"2023-013AN","DECAY_DATE":null,"EPHEMERIS_TYPE":"0","REV_AT_EPOCH":"130"},{"REF_FRAME":"TEME","RA_OF_ASC_NODE":"340.1564","SEMIMAJOR_AXIS":"6694.574","OBJECT_TYPE":"PAYLOAD","BSTAR":"-0.00365200000000","MEAN_MOTION_DDOT":"0.0000000000000","MEAN_ANOMALY":"163.0752","REV_AT_EPOCH":"130","EPHEMERIS_TYPE":"0","OBJECT_ID":"2023-013AP","DECAY_DATE":null,"TIME_SYSTEM":"UTC","ECCENTRICITY":"0.00025000","ELEMENT_SET_NO":"999","TLE_LINE2":"2 55368  42.9997 340.1564 0002500 255.3313 163.0752 15.84960284  1306","FILE":"3774172","CENTER_NAME":"EARTH","ARG_OF_PERICENTER":"255.3313","RCS_SIZE":null,"MEAN_ELEMENT_THEORY":"SGP4","PERIOD":"90.854","NORAD_CAT_ID":"55368","CLASSIFICATION_TYPE":"U","LAUNCH_DATE":"2023-01-26","SITE":"AFETR","TLE_LINE1":"1 55368U 23013AP  23036.91667824 -.00808109  00000-0 -36520-2 0  9999","MEAN_MOTION_DOT":"-0.00808109","EPOCH":"2023-02-05T22:00:00.999936","APOAPSIS":"318.112","PERIAPSIS":"314.765","MEAN_MOTION":"15.84960284","INCLINATION":"42.9997","OBJECT_NAME":"STARLINK-5625","GP_ID":"224561345","COUNTRY_CODE":"US"}];
